CCSDS_OMM_VERS = 2.0
CREATION_DATE  = 
ORIGINATOR     = 

OBJECT_NAME    = UNKNOWN
OBJECT_ID      = 
CENTER_NAME    = EARTH
REF_FRAME      = TEME
TIME_SYSTEM    = UTC
MEAN_ELEMENT_THEORY = SGP/SGP4

EPOCH          = 2025-12-24T16:15:37.223424
MEAN_MOTION    = 14.37279860
ECCENTRICITY   = .00066453
INCLINATION    = 98.8179
RA_OF_ASC_NODE = 336.9207
ARG_OF_PERICENTER = 273.3328
MEAN_ANOMALY   = 86.7097

EPHEMERIS_TYPE = 0
CLASSIFICATION_TYPE = U
NORAD_CAT_ID   = 270305
ELEMENT_SET_NO = 999
REV_AT_EPOCH   = 24600
BSTAR          = .83563563E-3
MEAN_MOTION_DOT = .2446E-4
MEAN_MOTION_DDOT = 0

CCSDS_OMM_VERS = 2.0
CREATION_DATE  = 
ORIGINATOR     = 

OBJECT_NAME    = UNKNOWN
OBJECT_ID      = 
CENTER_NAME    = EARTH
REF_FRAME      = TEME
TIME_SYSTEM    = UTC
MEAN_ELEMENT_THEORY = SGP/SGP4

EPOCH          = 2025-12-23T06:57:18.419328
MEAN_MOTION    = 12.92684258
ECCENTRICITY   = .002946
INCLINATION    = 90.2420
RA_OF_ASC_NODE = 3.0880
ARG_OF_PERICENTER = 31.4911
MEAN_ANOMALY   = 328.7963

EPHEMERIS_TYPE = 0
CLASSIFICATION_TYPE = U
NORAD_CAT_ID   = 270306
ELEMENT_SET_NO = 999
REV_AT_EPOCH   = 24189
BSTAR          = .40734519E-3
MEAN_MOTION_DOT = .118E-5
MEAN_MOTION_DDOT = 0

CCSDS_OMM_VERS = 2.0
CREATION_DATE  = 
ORIGINATOR     = 

OBJECT_NAME    = UNKNOWN
OBJECT_ID      = 
CENTER_NAME    = EARTH
REF_FRAME      = TEME
TIME_SYSTEM    = UTC
MEAN_ELEMENT_THEORY = SGP/SGP4

EPOCH          = 2025-12-21T08:31:14.443392
MEAN_MOTION    = 13.65266496
ECCENTRICITY   = .00865918
INCLINATION    = 82.6959
RA_OF_ASC_NODE = 213.1888
ARG_OF_PERICENTER = 262.2555
MEAN_ANOMALY   = 96.8757

EPHEMERIS_TYPE = 0
CLASSIFICATION_TYPE = U
NORAD_CAT_ID   = 270307
ELEMENT_SET_NO = 999
REV_AT_EPOCH   = 27808
BSTAR          = .10598499E-1
MEAN_MOTION_DOT = .885E-4
MEAN_MOTION_DDOT = 0

CCSDS_OMM_VERS = 2.0
CREATION_DATE  = 
ORIGINATOR     = 

OBJECT_NAME    = UNKNOWN
OBJECT_ID      = 
CENTER_NAME    = EARTH
REF_FRAME      = TEME
TIME_SYSTEM    = UTC
MEAN_ELEMENT_THEORY = SGP/SGP4

EPOCH          = 2025-12-22T05:20:01.782240
MEAN_MOTION    = 12.99073211
ECCENTRICITY   = .02160566
INCLINATION    = 82.5824
RA_OF_ASC_NODE = 332.8345
ARG_OF_PERICENTER = 238.1825
MEAN_ANOMALY   = 119.8090

EPHEMERIS_TYPE = 0
CLASSIFICATION_TYPE = U
NORAD_CAT_ID   = 270308
ELEMENT_SET_NO = 999
REV_AT_EPOCH   = 27419
BSTAR          = .52577442E-2
MEAN_MOTION_DOT = .175E-4
MEAN_MOTION_DDOT = 0

CCSDS_OMM_VERS = 2.0
CREATION_DATE  = 
ORIGINATOR     = 

OBJECT_NAME    = UNKNOWN
OBJECT_ID      = 
CENTER_NAME    = EARTH
REF_FRAME      = TEME
TIME_SYSTEM    = UTC
MEAN_ELEMENT_THEORY = SGP/SGP4

EPOCH          = 2025-12-25T21:29:42.616032
MEAN_MOTION    = 14.92996028
ECCENTRICITY   = .00348713
INCLINATION    = 98.3923
RA_OF_ASC_NODE = 338.0376
ARG_OF_PERICENTER = 267.5177
MEAN_ANOMALY   = 92.2048

EPHEMERIS_TYPE = 0
CLASSIFICATION_TYPE = U
NORAD_CAT_ID   = 270309
ELEMENT_SET_NO = 999
REV_AT_EPOCH   = 26980
BSTAR          = .66986545E-3
MEAN_MOTION_DOT = .6982E-4
MEAN_MOTION_DDOT = 0

CCSDS_OMM_VERS = 2.0
CREATION_DATE  = 
ORIGINATOR     = 

OBJECT_NAME    = UNKNOWN
OBJECT_ID      = 
CENTER_NAME    = EARTH
REF_FRAME      = TEME
TIME_SYSTEM    = UTC
MEAN_ELEMENT_THEORY = SGP/SGP4

EPOCH          = 2025-12-24T02:27:34.125120
MEAN_MOTION    = 13.48350433
ECCENTRICITY   = .01907147
INCLINATION    = 82.9407
RA_OF_ASC_NODE = 291.4883
ARG_OF_PERICENTER = 213.2837
MEAN_ANOMALY   = 145.6195

EPHEMERIS_TYPE = 0
CLASSIFICATION_TYPE = U
NORAD_CAT_ID   = 270310
ELEMENT_SET_NO = 999
REV_AT_EPOCH   = 23301
BSTAR          = .8563569E-3
MEAN_MOTION_DOT = .606E-5
MEAN_MOTION_DDOT = 0

CCSDS_OMM_VERS = 2.0
CREATION_DATE  = 
ORIGINATOR     = 

OBJECT_NAME    = UNKNOWN
OBJECT_ID      = 
CENTER_NAME    = EARTH
REF_FRAME      = TEME
TIME_SYSTEM    = UTC
MEAN_ELEMENT_THEORY = SGP/SGP4

EPOCH          = 2025-12-25T09:58:26.181984
MEAN_MOTION    = 14.51141496
ECCENTRICITY   = .00211414
INCLINATION    = 98.8031
RA_OF_ASC_NODE = 345.2136
ARG_OF_PERICENTER = 131.1242
MEAN_ANOMALY   = 229.1781

EPHEMERIS_TYPE = 0
CLASSIFICATION_TYPE = U
NORAD_CAT_ID   = 270311
ELEMENT_SET_NO = 999
REV_AT_EPOCH   = 24780
BSTAR          = .22627611E-2
MEAN_MOTION_DOT = .8963E-4
MEAN_MOTION_DDOT = 0

CCSDS_OMM_VERS = 2.0
CREATION_DATE  = 
ORIGINATOR     = 

OBJECT_NAME    = UNKNOWN
OBJECT_ID      = 
CENTER_NAME    = EARTH
REF_FRAME      = TEME
TIME_SYSTEM    = UTC
MEAN_ELEMENT_THEORY = SGP/SGP4

EPOCH          = 2025-12-24T06:08:52.387296
MEAN_MOTION    = 14.18238240
ECCENTRICITY   = .00305118
INCLINATION    = 98.4479
RA_OF_ASC_NODE = 359.3310
ARG_OF_PERICENTER = 100.4982
MEAN_ANOMALY   = 259.9635

EPHEMERIS_TYPE = 0
CLASSIFICATION_TYPE = U
NORAD_CAT_ID   = 270312
ELEMENT_SET_NO = 999
REV_AT_EPOCH   = 31427
BSTAR          = .26710579E-3
MEAN_MOTION_DOT = .511E-5
MEAN_MOTION_DDOT = 0

CCSDS_OMM_VERS = 2.0
CREATION_DATE  = 
ORIGINATOR     = 

OBJECT_NAME    = UNKNOWN
OBJECT_ID      = 
CENTER_NAME    = EARTH
REF_FRAME      = TEME
TIME_SYSTEM    = UTC
MEAN_ELEMENT_THEORY = SGP/SGP4

EPOCH          = 2025-12-11T08:39:43.716960
MEAN_MOTION    = 12.95179573
ECCENTRICITY   = .0025704
INCLINATION    = 90.2462
RA_OF_ASC_NODE = 6.9608
ARG_OF_PERICENTER = 342.1349
MEAN_ANOMALY   = 17.8864

EPHEMERIS_TYPE = 0
CLASSIFICATION_TYPE = U
NORAD_CAT_ID   = 270313
ELEMENT_SET_NO = 999
REV_AT_EPOCH   = 28075
BSTAR          = .20616542E-2
MEAN_MOTION_DOT = .587E-5
MEAN_MOTION_DDOT = 0

CCSDS_OMM_VERS = 2.0
CREATION_DATE  = 
ORIGINATOR     = 

OBJECT_NAME    = UNKNOWN
OBJECT_ID      = 
CENTER_NAME    = EARTH
REF_FRAME      = TEME
TIME_SYSTEM    = UTC
MEAN_ELEMENT_THEORY = SGP/SGP4

EPOCH          = 2025-12-23T18:43:00.288480
MEAN_MOTION    = 12.94732889
ECCENTRICITY   = .00283139
INCLINATION    = 90.2431
RA_OF_ASC_NODE = 3.0921
ARG_OF_PERICENTER = 10.0825
MEAN_ANOMALY   = 350.0857

EPHEMERIS_TYPE = 0
CLASSIFICATION_TYPE = U
NORAD_CAT_ID   = 270314
ELEMENT_SET_NO = 999
REV_AT_EPOCH   = 26992
BSTAR          = .14518101E-2
MEAN_MOTION_DOT = .413E-5
MEAN_MOTION_DDOT = 0

CCSDS_OMM_VERS = 2.0
CREATION_DATE  = 
ORIGINATOR     = 

OBJECT_NAME    = UNKNOWN
OBJECT_ID      = 
CENTER_NAME    = EARTH
REF_FRAME      = TEME
TIME_SYSTEM    = UTC
MEAN_ELEMENT_THEORY = SGP/SGP4

EPOCH          = 2025-12-23T22:02:24.592416
MEAN_MOTION    = 14.10588987
ECCENTRICITY   = .0273822
INCLINATION    = 97.6696
RA_OF_ASC_NODE = 231.4184
ARG_OF_PERICENTER = 341.5521
MEAN_ANOMALY   = 17.5872

EPHEMERIS_TYPE = 0
CLASSIFICATION_TYPE = U
NORAD_CAT_ID   = 270315
ELEMENT_SET_NO = 999
REV_AT_EPOCH   = 28550
BSTAR          = .17929152E-2
MEAN_MOTION_DOT = .4503E-4
MEAN_MOTION_DDOT = 0

CCSDS_OMM_VERS = 2.0
CREATION_DATE  = 
ORIGINATOR     = 

OBJECT_NAME    = UNKNOWN
OBJECT_ID      = 
CENTER_NAME    = EARTH
REF_FRAME      = TEME
TIME_SYSTEM    = UTC
MEAN_ELEMENT_THEORY = SGP/SGP4

EPOCH          = 2025-12-25T18:32:14.073504
MEAN_MOTION    = 14.20686206
ECCENTRICITY   = .00060314
INCLINATION    = 81.2120
RA_OF_ASC_NODE = 23.9384
ARG_OF_PERICENTER = 257.6025
MEAN_ANOMALY   = 102.4477

EPHEMERIS_TYPE = 0
CLASSIFICATION_TYPE = U
NORAD_CAT_ID   = 270316
ELEMENT_SET_NO = 999
REV_AT_EPOCH   = 26595
BSTAR          = .78053646E-3
MEAN_MOTION_DOT = .1694E-4
MEAN_MOTION_DDOT = 0

CCSDS_OMM_VERS = 2.0
CREATION_DATE  = 
ORIGINATOR     = 

OBJECT_NAME    = UNKNOWN
OBJECT_ID      = 
CENTER_NAME    = EARTH
REF_FRAME      = TEME
TIME_SYSTEM    = UTC
MEAN_ELEMENT_THEORY = SGP/SGP4

EPOCH          = 2025-12-23T06:04:32.897856
MEAN_MOTION    = 12.93320837
ECCENTRICITY   = .00241423
INCLINATION    = 90.2423
RA_OF_ASC_NODE = 3.4350
ARG_OF_PERICENTER = 9.6667
MEAN_ANOMALY   = 350.4911

EPHEMERIS_TYPE = 0
CLASSIFICATION_TYPE = U
NORAD_CAT_ID   = 270317
ELEMENT_SET_NO = 999
REV_AT_EPOCH   = 7205
BSTAR          = .1249323E-2
MEAN_MOTION_DOT = .35E-5
MEAN_MOTION_DDOT = 0

CCSDS_OMM_VERS = 2.0
CREATION_DATE  = 
ORIGINATOR     = 

OBJECT_NAME    = UNKNOWN
OBJECT_ID      = 
CENTER_NAME    = EARTH
REF_FRAME      = TEME
TIME_SYSTEM    = UTC
MEAN_ELEMENT_THEORY = SGP/SGP4

EPOCH          = 2025-12-20T15:50:26.550528
MEAN_MOTION    = 12.52390863
ECCENTRICITY   = .04898742
INCLINATION    = 103.0301
RA_OF_ASC_NODE = 138.6814
ARG_OF_PERICENTER = 299.8675
MEAN_ANOMALY   = 55.4570

EPHEMERIS_TYPE = 0
CLASSIFICATION_TYPE = U
NORAD_CAT_ID   = 270319
ELEMENT_SET_NO = 999
REV_AT_EPOCH   = 6332
BSTAR          = .31638212E-1
MEAN_MOTION_DOT = .7675E-4
MEAN_MOTION_DDOT = 0

CCSDS_OMM_VERS = 2.0
CREATION_DATE  = 
ORIGINATOR     = 

OBJECT_NAME    = UNKNOWN
OBJECT_ID      = 
CENTER_NAME    = EARTH
REF_FRAME      = TEME
TIME_SYSTEM    = UTC
MEAN_ELEMENT_THEORY = SGP/SGP4

EPOCH          = 2025-12-24T06:59:52.740960
MEAN_MOTION    = 12.99471985
ECCENTRICITY   = .00277401
INCLINATION    = 90.2378
RA_OF_ASC_NODE = 1.4158
ARG_OF_PERICENTER = 68.4554
MEAN_ANOMALY   = 291.9520

EPHEMERIS_TYPE = 0
CLASSIFICATION_TYPE = U
NORAD_CAT_ID   = 270320
ELEMENT_SET_NO = 999
REV_AT_EPOCH   = 22191
BSTAR          = .51561697E-3
MEAN_MOTION_DOT = .162E-5
MEAN_MOTION_DDOT = 0

CCSDS_OMM_VERS = 2.0
CREATION_DATE  = 
ORIGINATOR     = 

OBJECT_NAME    = UNKNOWN
OBJECT_ID      = 
CENTER_NAME    = EARTH
REF_FRAME      = TEME
TIME_SYSTEM    = UTC
MEAN_ELEMENT_THEORY = SGP/SGP4

EPOCH          = 2025-12-24T00:05:30.366816
MEAN_MOTION    = 12.92652313
ECCENTRICITY   = .0030619
INCLINATION    = 90.2428
RA_OF_ASC_NODE = 2.8652
ARG_OF_PERICENTER = 25.1732
MEAN_ANOMALY   = 335.0871

EPHEMERIS_TYPE = 0
CLASSIFICATION_TYPE = U
NORAD_CAT_ID   = 270321
ELEMENT_SET_NO = 999
REV_AT_EPOCH   = 24341
BSTAR          = .74996545E-3
MEAN_MOTION_DOT = .211E-5
MEAN_MOTION_DDOT = 0

